OBJECT_NAME,OBJECT_ID,EPOCH,MEAN_MOTION,ECCENTRICITY,INCLINATION,RA_OF_ASC_NODE,ARG_OF_PERICENTER,MEAN_ANOMALY,EPHEMERIS_TYPE,CLASSIFICATION_TYPE,NORAD_CAT_ID,ELEMENT_SET_NO,REV_AT_EPOCH,BSTAR,MEAN_MOTION_DOT,MEAN_MOTION_DDOT
STARLINK-1169,2020-006T,2026-07-06T21:56:30.592608,15.41172696,.0005297,53.1533,82.8054,72.8764,287.2821,0,U,45061,999,35486,.94478E-3,.39594E-3,0
STARLINK-1171,2020-006U,2026-07-06T16:37:20.896608,15.79091008,.0000476,53.0379,20.3246,42.3269,317.7788,0,U,45062,999,35569,.44951E-3,.81894E-3,0
STARLINK-1133,2020-006W,2026-07-06T22:01:15.766176,15.37513834,.0004589,53.1559,61.7178,99.4997,260.6526,0,U,45064,999,35516,.10038E-2,.37285E-3,0
STARLINK-1167,2020-006AD,2026-07-06T20:55:25.977216,15.40144679,.0002782,53.1551,60.4684,63.6785,296.4506,0,U,45071,999,35517,.42803E-3,.17057E-3,0
STARLINK-1168,2020-006AE,2026-07-07T02:04:39.002592,15.38031223,.0003832,53.1554,61.0584,98.3198,261.8241,0,U,45072,999,35518,.95729E-3,.36137E-3,0
STARLINK-1172,2020-006AG,2026-07-06T22:33:39.401568,15.41248310,.0002609,53.1524,59.2691,88.7824,271.3480,0,U,45074,999,35519,.96168E-3,.40404E-3,0
STARLINK-1153,2020-006AN,2026-07-07T01:09:39.325248,15.40153621,.0004636,53.1566,59.5392,53.6441,306.4991,0,U,45080,999,35520,.56669E-3,.22741E-3,0
STARLINK-1151,2020-006AP,2026-07-07T06:00:02.000160,15.98615895,.0007946,53.0444,2.8711,292.8190,20.3743,0,U,45081,999,572,.62802E-3,.302941E-2,.48936E-4
STARLINK-1185,2020-006AV,2026-07-05T23:47:34.528704,15.49257698,.0003561,53.1576,42.8809,119.0385,241.0981,0,U,45087,999,35534,.11671E-2,.64894E-3,0
STARLINK-1183,2020-006AW,2026-07-07T06:00:02.000160,15.37437425,.0003714,53.1570,44.9898,119.2935,137.4284,0,U,45088,999,598,-.63201E-4,-.2745E-4,0
STARLINK-1152,2020-006BE,2026-07-06T17:14:51.671040,15.52590845,.0002769,53.0332,359.0367,230.8352,129.2411,0,U,45096,999,35599,.92121E-3,.57556E-3,0
STARLINK-1184,2020-006BG,2026-07-06T21:36:28.031616,15.15607137,.0004758,53.0505,64.7627,121.4303,238.7156,0,U,45098,999,35508,.77531E-3,.14627E-3,0
STARLINK-1193,2020-006BJ,2026-07-06T16:24:21.979008,15.71123809,.0003505,53.0459,7.1345,52.5365,307.5970,0,U,45100,999,35587,.39033E-3,.49879E-3,0
ONEWEB-0013,2020-008A,2026-07-07T00:53:03.378624,13.09462652,.0001322,87.8506,48.8188,49.5148,310.6094,0,U,45131,999,30866,-.13603E-2,-.456E-5,0
ONEWEB-0017,2020-008B,2026-07-07T00:07:50.602656,13.10377399,.0001954,87.8818,32.3194,91.2994,268.8357,0,U,45132,999,31054,.10221E-2,.37E-5,0
ONEWEB-0020,2020-008C,2026-07-06T23:23:47.809824,13.10370506,.0001844,87.8819,32.3246,85.6576,274.4762,0,U,45133,999,31093,-.17279E-2,-.59E-5,0
ONEWEB-0021,2020-008D,2026-07-06T23:45:46.762848,13.10373897,.0001724,87.8820,32.3368,87.6697,272.4628,0,U,45134,999,31124,-.13369E-2,-.454E-5,0
ONEWEB-0023,2020-008F,2026-07-06T22:11:43.535616,13.10378879,.0001872,87.8826,32.3327,79.6150,280.5188,0,U,45136,999,31066,-.18729E-4,.6E-7,0
ONEWEB-0024,2020-008G,2026-07-06T23:21:32.334624,13.10369585,.0001825,87.8827,32.3165,88.2814,271.8523,0,U,45137,999,31083,-.14926E-2,-.508E-5,0
ONEWEB-0025,2020-008H,2026-07-06T23:21:08.930592,13.10370099,.0002274,87.8827,32.3065,83.1207,277.0179,0,U,45138,999,31116,-.15201E-2,-.518E-5,0
ONEWEB-0026,2020-008J,2026-07-06T22:03:58.675968,13.11414300,.0001974,87.8879,17.1386,92.0300,268.1054,0,U,45139,999,31369,-.41194E-5,.11E-6,0
ONEWEB-0028,2020-008K,2026-07-06T21:28:35.224032,13.11417381,.0001467,87.8875,17.1511,72.4681,287.6607,0,U,45140,999,31120,.1509E-2,.548E-5,0
ONEWEB-0032,2020-008L,2026-07-07T00:10:28.439040,13.10375686,.0001661,87.8820,32.3208,70.2799,289.8507,0,U,45141,999,31089,.11232E-2,.405E-5,0
ONEWEB-0033,2020-008M,2026-07-06T23:33:33.731424,13.10372028,.0002104,87.8816,32.3324,98.9742,261.1623,0,U,45142,999,31080,-.18778E-2,-.643E-5,0
ONEWEB-0035,2020-008N,2026-07-07T00:03:08.904096,13.10355539,.0001939,87.8819,32.3213,87.8332,272.3017,0,U,45143,999,31053,-.50749E-2,-.1758E-4,0
ONEWEB-0036,2020-008P,2026-07-06T14:21:10.808928,13.10368419,.0001772,87.8832,32.4182,79.7302,280.4025,0,U,45144,999,31090,-.19863E-2,-.681E-5,0
ONEWEB-0038,2020-008Q,2026-07-07T00:08:41.157888,13.11415121,.0001351,87.8894,17.1332,150.4353,209.6851,0,U,45145,999,31292,-.98254E-3,-.336E-5,0
ONEWEB-0039,2020-008R,2026-07-06T23:38:27.831840,13.10372016,.0001368,87.8813,32.3226,71.8892,288.2385,0,U,45146,999,31075,-.95344E-3,-.32E-5,0
ONEWEB-0040,2020-008S,2026-07-06T14:18:53.496000,13.10371240,.0001974,87.8816,32.4106,78.0129,282.1220,0,U,45147,999,31040,-.18441E-2,-.631E-5,0
ONEWEB-0043,2020-008U,2026-07-06T14:21:33.300576,13.10367309,.0001477,87.8824,32.3991,72.0810,288.0478,0,U,45149,999,31072,-.20857E-2,-.715E-5,0
