STARLINK-1169           
1 45061U 20006T   26187.91424297  .00039594  00000+0  94478-3 0  9990
2 45061  53.1533  82.8054 0005297  72.8764 287.2821 15.41172696354860
STARLINK-1171           
1 45062U 20006U   26187.69260297  .00081894  00000+0  44951-3 0  9995
2 45062  53.0379  20.3246 0000476  42.3269 317.7788 15.79091008355695
STARLINK-1133           
1 45064U 20006W   26187.91754359  .00037285  00000+0  10038-2 0  9992
2 45064  53.1559  61.7178 0004589  99.4997 260.6526 15.37513834355169
STARLINK-1167           
1 45071U 20006AD  26187.87182844  .00017057  00000+0  42803-3 0  9990
2 45071  53.1551  60.4684 0002782  63.6785 296.4506 15.40144679355175
STARLINK-1168           
1 45072U 20006AE  26188.08656253  .00036137  00000+0  95729-3 0  9990
2 45072  53.1554  61.0584 0003832  98.3198 261.8241 15.38031223355185
STARLINK-1172           
1 45074U 20006AG  26187.94003937  .00040404  00000+0  96168-3 0  9991
2 45074  53.1524  59.2691 0002609  88.7824 271.3480 15.41248310355195
STARLINK-1153           
1 45080U 20006AN  26188.04837182  .00022741  00000+0  56669-3 0  9993
2 45080  53.1566  59.5392 0004636  53.6441 306.4991 15.40153621355205
STARLINK-1151           
1 45081U 20006AP  26188.25002315  .00302941  48936-4  62802-3 0  9993
2 45081  53.0444   2.8711 0007946 292.8190  20.3743 15.98615895  5726
STARLINK-1185           
1 45087U 20006AV  26186.99137186  .00064894  00000+0  11671-2 0  9997
2 45087  53.1576  42.8809 0003561 119.0385 241.0981 15.49257698355347
STARLINK-1183           
1 45088U 20006AW  26188.25002315 -.00002745  00000+0 -63201-4 0  9991
2 45088  53.1570  44.9898 0003714 119.2935 137.4284 15.37437425  5987
STARLINK-1152           
1 45096U 20006BE  26187.71865360  .00057556  00000+0  92121-3 0  9997
2 45096  53.0332 359.0367 0002769 230.8352 129.2411 15.52590845355997
STARLINK-1184           
1 45098U 20006BG  26187.90032444  .00014627  00000+0  77531-3 0  9999
2 45098  53.0505  64.7627 0004758 121.4303 238.7156 15.15607137355085
STARLINK-1193           
1 45100U 20006BJ  26187.68358772  .00049879  00000+0  39033-3 0  9995
2 45100  53.0459   7.1345 0003505  52.5365 307.5970 15.71123809355873
ONEWEB-0013             
1 45131U 20008A   26188.03684466 -.00000456  00000+0 -13603-2 0  9997
2 45131  87.8506  48.8188 0001322  49.5148 310.6094 13.09462652308660
ONEWEB-0017             
1 45132U 20008B   26188.00544679  .00000370  00000+0  10221-2 0  9992
2 45132  87.8818  32.3194 0001954  91.2994 268.8357 13.10377399310547
ONEWEB-0020             
1 45133U 20008C   26187.97485891 -.00000590  00000+0 -17279-2 0  9994
2 45133  87.8819  32.3246 0001844  85.6576 274.4762 13.10370506310937
ONEWEB-0021             
1 45134U 20008D   26187.99012457 -.00000454  00000+0 -13369-2 0  9996
2 45134  87.8820  32.3368 0001724  87.6697 272.4628 13.10373897311248
ONEWEB-0023             
1 45136U 20008F   26187.92480944  .00000006  00000+0 -18729-4 0  9990
2 45136  87.8826  32.3327 0001872  79.6150 280.5188 13.10378879310661
ONEWEB-0024             
1 45137U 20008G   26187.97329091 -.00000508  00000+0 -14926-2 0  9992
2 45137  87.8827  32.3165 0001825  88.2814 271.8523 13.10369585310833
ONEWEB-0025             
1 45138U 20008H   26187.97302003 -.00000518  00000+0 -15201-2 0  9995
2 45138  87.8827  32.3065 0002274  83.1207 277.0179 13.10370099311166
ONEWEB-0026             
1 45139U 20008J   26187.91942912  .00000011  00000+0 -41194-5 0  9999
2 45139  87.8879  17.1386 0001974  92.0300 268.1054 13.11414300313698
ONEWEB-0028             
1 45140U 20008K   26187.89485213  .00000548  00000+0  15090-2 0  9991
2 45140  87.8875  17.1511 0001467  72.4681 287.6607 13.11417381311204
ONEWEB-0032             
1 45141U 20008L   26188.00727360  .00000405  00000+0  11232-2 0  9994
2 45141  87.8820  32.3208 0001661  70.2799 289.8507 13.10375686310896
ONEWEB-0033             
1 45142U 20008M   26187.98164041 -.00000643  00000+0 -18778-2 0  9990
2 45142  87.8816  32.3324 0002104  98.9742 261.1623 13.10372028310809
ONEWEB-0035             
1 45143U 20008N   26188.00218639 -.00001758  00000+0 -50749-2 0  9990
2 45143  87.8819  32.3213 0001939  87.8332 272.3017 13.10355539310536
ONEWEB-0036             
1 45144U 20008P   26187.59804177 -.00000681  00000+0 -19863-2 0  9998
2 45144  87.8832  32.4182 0001772  79.7302 280.4025 13.10368419310901
ONEWEB-0038             
1 45145U 20008Q   26188.00603192 -.00000336  00000+0 -98254-3 0  9999
2 45145  87.8894  17.1332 0001351 150.4353 209.6851 13.11415121312921
ONEWEB-0039             
1 45146U 20008R   26187.98504435 -.00000320  00000+0 -95344-3 0  9996
2 45146  87.8813  32.3226 0001368  71.8892 288.2385 13.10372016310754
ONEWEB-0040             
1 45147U 20008S   26187.59645250 -.00000631  00000+0 -18441-2 0  9992
2 45147  87.8816  32.4106 0001974  78.0129 282.1220 13.10371240310402
ONEWEB-0043             
1 45149U 20008U   26187.59830209 -.00000715  00000+0 -20857-2 0  9991
2 45149  87.8824  32.3991 0001477  72.0810 288.0478 13.10367309310729
